{
  "type": "FeatureCollection",
  "features": [
    {
      "type": "Feature",
      "properties": {
        "norad_id": 38481,
        "name": "COSMOS 2251 DEB",
        "group": "cosmos-2251-debris",
        "lat": 16.25609299560092,
        "lon": 6.09528013299524,
        "alt_km": 867.3424034461295,
        "timestamp": "2025-12-16T08:59:43.559749+00:00",
        "meta_object_name": "COSMOS 2251 DEB",
        "meta_object_id": "1993-036BTR",
        "meta_epoch": "2025-12-15T07:05:48.999264",
        "meta_mean_motion": 13.94840538,
        "meta_eccentricity": 0.02346938,
        "meta_inclination": 73.9334,
        "meta_ra_of_asc_node": 3.139,
        "meta_arg_of_pericenter": 302.9247,
        "meta_mean_anomaly": 54.9502,
        "meta_ephemeris_type": 0,
        "meta_classification_type": "U",
        "meta_norad_cat_id": 38481,
        "meta_element_set_no": 999,
        "meta_rev_at_epoch": 59096,
        "meta_bstar": 0.0014478089,
        "meta_mean_motion_dot": 2.419e-05,
        "meta_mean_motion_ddot": 0,
        "tle_line1": "1 38481U 93036BTR 25349.29570601  .00002419  00000+0  14478-2 0  9999",
        "tle_line2": "2 38481  73.9334   3.1390 0234693 302.9247  54.9502 13.94840538590964"
      },
      "geometry": {
        "type": "Point",
        "coordinates": [
          6.09528013299524,
          16.25609299560092
        ]
      }
    },
    {
      "type": "Feature",
      "properties": {
        "norad_id": 38483,
        "name": "COSMOS 2251 DEB",
        "group": "cosmos-2251-debris",
        "lat": -21.369149854711925,
        "lon": -168.42294442561465,
        "alt_km": 803.2606237860564,
        "timestamp": "2025-12-16T08:59:43.559759+00:00",
        "meta_object_name": "COSMOS 2251 DEB",
        "meta_object_id": "1993-036BTT",
        "meta_epoch": "2025-12-12T08:16:48.530496",
        "meta_mean_motion": 14.28787654,
        "meta_eccentricity": 0.01107994,
        "meta_inclination": 74.262,
        "meta_ra_of_asc_node": 12.4521,
        "meta_arg_of_pericenter": 118.0167,
        "meta_mean_anomaly": 243.2246,
        "meta_ephemeris_type": 0,
        "meta_classification_type": "U",
        "meta_norad_cat_id": 38483,
        "meta_element_set_no": 999,
        "meta_rev_at_epoch": 63472,
        "meta_bstar": 0.0012977102,
        "meta_mean_motion_dot": 3.471e-05,
        "meta_mean_motion_ddot": 0,
        "tle_line1": "1 38483U 93036BTT 25346.34500614  .00003471  00000+0  12977-2 0  9992",
        "tle_line2": "2 38483  74.2620  12.4521 0110799 118.0167 243.2246 14.28787654634722"
      },
      "geometry": {
        "type": "Point",
        "coordinates": [
          -168.42294442561465,
          -21.369149854711925
        ]
      }
    },
    {
      "type": "Feature",
      "properties": {
        "norad_id": 38486,
        "name": "COSMOS 2251 DEB",
        "group": "cosmos-2251-debris",
        "lat": 42.010818756622236,
        "lon": -147.22962920127563,
        "alt_km": 636.8213287161416,
        "timestamp": "2025-12-16T08:59:43.559770+00:00",
        "meta_object_name": "COSMOS 2251 DEB",
        "meta_object_id": "1993-036BTW",
        "meta_epoch": "2025-12-14T08:43:16.817376",
        "meta_mean_motion": 14.73317924,
        "meta_eccentricity": 0.00302546,
        "meta_inclination": 73.9417,
        "meta_ra_of_asc_node": 201.6743,
        "meta_arg_of_pericenter": 345.7172,
        "meta_mean_anomaly": 193.9267,
        "meta_ephemeris_type": 0,
        "meta_classification_type": "U",
        "meta_norad_cat_id": 38486,
        "meta_element_set_no": 999,
        "meta_rev_at_epoch": 75458,
        "meta_bstar": 0.0022812423,
        "meta_mean_motion_dot": 0.00014869,
        "meta_mean_motion_ddot": 0,
        "tle_line1": "1 38486U 93036BTW 25348.36338909  .00014869  00000+0  22812-2 0  9997",
        "tle_line2": "2 38486  73.9417 201.6743 0030254 345.7172 193.9267 14.73317924754585"
      },
      "geometry": {
        "type": "Point",
        "coordinates": [
          -147.22962920127563,
          42.010818756622236
        ]
      }
    },
    {
      "type": "Feature",
      "properties": {
        "norad_id": 38487,
        "name": "COSMOS 2251 DEB",
        "group": "cosmos-2251-debris",
        "lat": 36.64762761422307,
        "lon": 38.55023079184409,
        "alt_km": 523.9436923905396,
        "timestamp": "2025-12-16T08:59:43.559780+00:00",
        "meta_object_name": "COSMOS 2251 DEB",
        "meta_object_id": "1993-036BTX",
        "meta_epoch": "2025-12-15T09:05:37.644288",
        "meta_mean_motion": 15.17550331,
        "meta_eccentricity": 0.00212693,
        "meta_inclination": 73.9757,
        "meta_ra_of_asc_node": 28.2906,
        "meta_arg_of_pericenter": 200.4312,
        "meta_mean_anomaly": 159.6036,
        "meta_ephemeris_type": 0,
        "meta_classification_type": "U",
        "meta_norad_cat_id": 38487,
        "meta_element_set_no": 999,
        "meta_rev_at_epoch": 66840,
        "meta_bstar": 0.0011624487,
        "meta_mean_motion_dot": 0.00023508,
        "meta_mean_motion_ddot": 0,
        "tle_line1": "1 38487U 93036BTX 25349.37890792  .00023508  00000+0  11624-2 0  9992",
        "tle_line2": "2 38487  73.9757  28.2906 0021269 200.4312 159.6036 15.17550331668404"
      },
      "geometry": {
        "type": "Point",
        "coordinates": [
          38.55023079184409,
          36.64762761422307
        ]
      }
    },
    {
      "type": "Feature",
      "properties": {
        "norad_id": 39109,
        "name": "COSMOS 2251 DEB",
        "group": "cosmos-2251-debris",
        "lat": 64.00364486666129,
        "lon": -106.0436677461998,
        "alt_km": 665.2849776378989,
        "timestamp": "2025-12-16T08:59:43.559790+00:00",
        "meta_object_name": "COSMOS 2251 DEB",
        "meta_object_id": "1993-036BTY",
        "meta_epoch": "2025-12-09T10:58:18.988608",
        "meta_mean_motion": 14.70683686,
        "meta_eccentricity": 0.00592583,
        "meta_inclination": 74.0426,
        "meta_ra_of_asc_node": 231.4464,
        "meta_arg_of_pericenter": 335.6145,
        "meta_mean_anomaly": 202.0339,
        "meta_ephemeris_type": 0,
        "meta_classification_type": "U",
        "meta_norad_cat_id": 39109,
        "meta_element_set_no": 999,
        "meta_rev_at_epoch": 65125,
        "meta_bstar": 0.00089315049,
        "meta_mean_motion_dot": 5.561e-05,
        "meta_mean_motion_ddot": 0,
        "tle_line1": "1 39109U 93036BTY 25343.45716422  .00005561  00000+0  89315-3 0  9996",
        "tle_line2": "2 39109  74.0426 231.4464 0059258 335.6145 202.0339 14.70683686651254"
      },
      "geometry": {
        "type": "Point",
        "coordinates": [
          -106.0436677461998,
          64.00364486666129
        ]
      }
    },
    {
      "type": "Feature",
      "properties": {
        "norad_id": 39110,
        "name": "COSMOS 2251 DEB",
        "group": "cosmos-2251-debris",
        "lat": -73.93787202386834,
        "lon": -33.34340984699683,
        "alt_km": 595.0910045235523,
        "timestamp": "2025-12-16T08:59:43.559800+00:00",
        "meta_object_name": "COSMOS 2251 DEB",
        "meta_object_id": "1993-036BTZ",
        "meta_epoch": "2025-12-03T13:14:13.055136",
        "meta_mean_motion": 14.72215365,
        "meta_eccentricity": 0.00964609,
        "meta_inclination": 73.9598,
        "meta_ra_of_asc_node": 79.4668,
        "meta_arg_of_pericenter": 313.6965,
        "meta_mean_anomaly": 59.6182,
        "meta_ephemeris_type": 0,
        "meta_classification_type": "U",
        "meta_norad_cat_id": 39110,
        "meta_element_set_no": 999,
        "meta_rev_at_epoch": 62349,
        "meta_bstar": 0.00066560445,
        "meta_mean_motion_dot": 4.484e-05,
        "meta_mean_motion_ddot": 0,
        "tle_line1": "1 39110U 93036BTZ 25337.55153999  .00004484  00000+0  66560-3 0  9996",
        "tle_line2": "2 39110  73.9598  79.4668 0096460 313.6965  59.6182 14.72215365623496"
      },
      "geometry": {
        "type": "Point",
        "coordinates": [
          -33.34340984699683,
          -73.93787202386834
        ]
      }
    },
    {
      "type": "Feature",
      "properties": {
        "norad_id": 39111,
        "name": "COSMOS 2251 DEB",
        "group": "cosmos-2251-debris",
        "lat": 30.80357607569152,
        "lon": 43.427447980010065,
        "alt_km": 512.9502225597234,
        "timestamp": "2025-12-16T08:59:43.559810+00:00",
        "meta_object_name": "COSMOS 2251 DEB",
        "meta_object_id": "1993-036BUA",
        "meta_epoch": "2025-12-01T22:58:55.551360",
        "meta_mean_motion": 15.11912111,
        "meta_eccentricity": 0.00109111,
        "meta_inclination": 74.0059,
        "meta_ra_of_asc_node": 63.5328,
        "meta_arg_of_pericenter": 39.1207,
        "meta_mean_anomaly": 321.0773,
        "meta_ephemeris_type": 0,
        "meta_classification_type": "U",
        "meta_norad_cat_id": 39111,
        "meta_element_set_no": 999,
        "meta_rev_at_epoch": 8982,
        "meta_bstar": 0.0056424119,
        "meta_mean_motion_dot": 0.00098096,
        "meta_mean_motion_ddot": 0,
        "tle_line1": "1 39111U 93036BUA 25335.95758740  .00098096  00000+0  56424-2 0  9993",
        "tle_line2": "2 39111  74.0059  63.5328 0010911  39.1207 321.0773 15.11912111 89826"
      },
      "geometry": {
        "type": "Point",
        "coordinates": [
          43.427447980010065,
          30.80357607569152
        ]
      }
    }
  ]
}